STARLINK-34250          
1 64690U 25139AC  26198.38859615  .00008761  00000+0  27015-3 0  9995
2 64690  53.1575 242.3252 0001032  68.4934 291.6179 15.34397932 60178
LYRA-4                  
1 64691U 25140A   26198.86398176  .00000604  00000+0  99453-4 0  9995
2 64691  96.0081 311.3058 0014471 102.6938 257.5894 14.72567422 56572
GOSAT-GW (IBUKI GW)     
1 64694U 25141A   26198.93998748 -.00000069  00000+0 -37674-5 0  9993
2 64694  98.0565 135.7573 0001370  84.1440 275.9921 14.67554385 56359
STARLINK-34497          
1 64696U 25142A   26198.81702118  .00002902  00000+0  25080-3 0  9999
2 64696  70.0022 346.3191 0003014 273.8007  86.2808 14.98345373 59133
STARLINK-34584          
1 64697U 25142B   26198.80015620  .00001224  00000+0  11032-3 0  9992
2 64697  70.0021 346.2547 0003047 261.4302  98.6512 14.98332598 58979
STARLINK-34535          
1 64698U 25142C   26198.84606931  .00001824  00000+0  16058-3 0  9997
2 64698  70.0023 346.3960 0002820 265.9543  94.1294 14.98335589 58966
STARLINK-34600          
1 64699U 25142D   26198.84191839  .00003964  00000+0  33980-3 0  9994
2 64699  70.0018 346.3762 0002881 267.2550  92.8280 14.98332672 58972
STARLINK-34560          
1 64700U 25142E   26198.85441709  .00001595  00000+0  14142-3 0  9999
2 64700  70.0023 346.4172 0003463 267.6386  92.4377 14.98334799 58936
STARLINK-34576          
1 64701U 25142F   26198.80449462  .00000828  00000+0  77161-4 0  9998
2 64701  70.0027 346.2419 0002910 269.5176  90.5649 14.98331236 58964
STARLINK-34322          
1 64702U 25142G   26198.80866962  .00002523  00000+0  21912-3 0  9993
2 64702  70.0025 346.2601 0002983 267.6287  92.4530 14.98335252 59130
STARLINK-34470          
1 64703U 25142H   26198.86291071  .00002941  00000+0  25403-3 0  9996
2 64703  70.0024 346.0469 0003017 266.0277  94.0537 14.98345459 58966
STARLINK-34405          
1 64704U 25142J   26198.81285341  .00002850  00000+0  24653-3 0  9990
2 64704  70.0025 346.3025 0002975 268.2425  91.8394 14.98335188 58986
STARLINK-34406          
1 64705U 25142K   26198.83770139 -.00002024  00000+0 -16182-3 0  9990
2 64705  70.0020 346.3891 0004683 248.4514 111.6146 14.98339029 59097
STARLINK-34559          
1 64706U 25142L   26198.81268027  .00002202  00000+0  19229-3 0  9998
2 64706  70.0024 346.2988 0002612 265.5338  94.5522 14.98335980 58988
STARLINK-34316          
1 64707U 25142M   26198.81685363  .00001992  00000+0  17465-3 0  9990
2 64707  70.0023 346.3126 0002990 263.6012  96.4807 14.98332770 59140
STARLINK-34563          
1 64708U 25142N   26198.85860475  .00002732  00000+0  23661-3 0  9992
2 64708  70.0022 346.4566 0002494 267.6688  92.4185 14.98333850 58954
STARLINK-34499          
1 64709U 25142P   26198.80849309 -.00000420  00000+0 -27364-4 0  9990
2 64709  70.0026 346.2649 0003778 264.4898  95.5831 14.98332946 58950
STARLINK-34447          
1 64710U 25142Q   26198.89630468  .00002852  00000+0  24665-3 0  9994
2 64710  70.0023 346.1535 0002869 267.1593  92.9238 14.98334178 59158
STARLINK-34312          
1 64711U 25142R   26198.82119248  .00001911  00000+0  16790-3 0  9991
2 64711  70.0024 346.3225 0003128 265.3432  94.7370 14.98333114 59144
STARLINK-34515          
1 64712U 25142S   26198.80031696 -.00000626  00000+0 -44699-4 0  9994
2 64712  70.0018 346.2314 0002939 271.1244  88.9578 14.98330222 58951
STARLINK-34583          
1 64713U 25142T   26198.85024258  .00002114  00000+0  18484-3 0  9990
2 64713  70.0026 346.3995 0003186 266.6405  93.4389 14.98336168 58956
STARLINK-34574          
1 64714U 25142U   26198.83371569  .00001004  00000+0  91915-4 0  9997
2 64714  70.0022 346.3698 0002848 268.1493  91.9340 14.98335854 58985
STARLINK-34533          
1 64715U 25142V   26198.82104358  .00002835  00000+0  24521-3 0  9998
2 64715  70.0024 346.3288 0003201 262.2977  97.7819 14.98340136 58950
STARLINK-34548          
1 64716U 25142W   26198.80433084  .00001073  00000+0  97739-4 0  9993
2 64716  70.0021 346.2700 0003165 263.9719  96.1079 14.98332240 58955
STARLINK-34568          
1 64717U 25142X   26198.82937572  .00002009  00000+0  17608-3 0  9993
2 64717  70.0026 346.3581 0003127 265.3695  94.7107 14.98334458 58988
STARLINK-34546          
1 64718U 25142Y   26198.79598069  .00002701  00000+0  23403-3 0  9993
2 64718  70.0024 346.2400 0003161 269.9437  90.1360 14.98332969 59143
STARLINK-34577          
1 64719U 25142Z   26198.83353328 -.00002228  00000+0 -17894-3 0  9999
2 64719  70.0022 346.3371 0004333 251.2437 108.8252 14.98332933 58985
STARLINK-34572          
1 64720U 25142AA  26198.82517213 -.00022599  00000+0 -18900-2 0  9996
2 64720  70.0022 346.3420 0003675 271.8686  88.2052 14.98376529 59141
STARLINK-34558          
1 64721U 25142AB  26198.82536077  .00001308  00000+0  11736-3 0  9990
2 64721  70.0024 346.3382 0002721 269.1595  90.9252 14.98341980 58954
MTG-S1                  
1 64723U 25143A   26198.83737803 -.00000016  00000+0  00000+0 0  9998
2 64723   0.5828 345.7575 0003352 259.7759 351.1878  1.00274335  3720
