OBJECT_NAME,OBJECT_ID,EPOCH,MEAN_MOTION,ECCENTRICITY,INCLINATION,RA_OF_ASC_NODE,ARG_OF_PERICENTER,MEAN_ANOMALY,EPHEMERIS_TYPE,CLASSIFICATION_TYPE,NORAD_CAT_ID,ELEMENT_SET_NO,REV_AT_EPOCH,BSTAR,MEAN_MOTION_DOT,MEAN_MOTION_DDOT
STARLINK-34250,2025-139AC,2026-07-17T09:19:34.707360,15.34397932,.0001032,53.1575,242.3252,68.4934,291.6179,0,U,64690,999,6017,.27015E-3,.8761E-4,0
LYRA-4,2025-140A,2026-07-17T20:44:08.024064,14.72567422,.0014471,96.0081,311.3058,102.6938,257.5894,0,U,64691,999,5657,.99452819E-4,.604E-5,0
GOSAT-GW (IBUKI GW),2025-141A,2026-07-17T22:33:34.918272,14.67554385,.00013704,98.0565,135.7573,84.1440,275.9921,0,U,64694,999,5635,-.3767408E-5,-.69E-6,0
STARLINK-34497,2025-142A,2026-07-17T19:36:30.629952,14.98345373,.00030148,70.0022,346.3191,273.8007,86.2808,0,U,64696,999,5913,.25080381E-3,.2902E-4,0
STARLINK-34584,2025-142B,2026-07-17T19:12:13.495680,14.98332598,.00030474,70.0021,346.2547,261.4302,98.6512,0,U,64697,999,5897,.11031789E-3,.1224E-4,0
STARLINK-34535,2025-142C,2026-07-17T20:18:20.388384,14.98335589,.00028204,70.0023,346.3960,265.9543,94.1294,0,U,64698,999,5896,.16058316E-3,.1824E-4,0
STARLINK-34600,2025-142D,2026-07-17T20:12:21.748896,14.98332672,.0002881,70.0018,346.3762,267.2550,92.8280,0,U,64699,999,5897,.33979548E-3,.3964E-4,0
STARLINK-34560,2025-142E,2026-07-17T20:30:21.636576,14.98334799,.00034631,70.0023,346.4172,267.6386,92.4377,0,U,64700,999,5893,.14141515E-3,.1595E-4,0
STARLINK-34576,2025-142F,2026-07-17T19:18:28.335168,14.98331236,.00029108,70.0027,346.2419,269.5176,90.5649,0,U,64701,999,5896,.7716133E-4,.828E-5,0
STARLINK-34322,2025-142G,2026-07-17T19:24:29.055168,14.98335252,.0002983,70.0025,346.2601,267.6287,92.4530,0,U,64702,999,5913,.21911713E-3,.2523E-4,0
STARLINK-34470,2025-142H,2026-07-17T20:42:35.485344,14.98345459,.00030179,70.0024,346.0469,266.0277,94.0537,0,U,64703,999,5896,.25403377E-3,.2941E-4,0
STARLINK-34405,2025-142J,2026-07-17T19:30:30.534624,14.98335188,.00029754,70.0025,346.3025,268.2425,91.8394,0,U,64704,999,5898,.24653197E-3,.285E-4,0
STARLINK-34406,2025-142K,2026-07-17T20:06:17.400096,14.98339029,.00046834,70.0020,346.3891,248.4514,111.6146,0,U,64705,999,5909,-.16181975E-3,-.2024E-4,0
STARLINK-34559,2025-142L,2026-07-17T19:30:15.575328,14.98335980,.00026125,70.0024,346.2988,265.5338,94.5522,0,U,64706,999,5898,.19228723E-3,.2202E-4,0
STARLINK-34316,2025-142M,2026-07-17T19:36:16.153632,14.98332770,.00029906,70.0023,346.3126,263.6012,96.4807,0,U,64707,999,5914,.17465205E-3,.1992E-4,0
STARLINK-34563,2025-142N,2026-07-17T20:36:23.450400,14.98333850,.00024941,70.0022,346.4566,267.6688,92.4185,0,U,64708,999,5895,.23661336E-3,.2732E-4,0
STARLINK-34499,2025-142P,2026-07-17T19:24:13.802976,14.98332946,.00037785,70.0026,346.2649,264.4898,95.5831,0,U,64709,999,5895,-.2736364E-4,-.42E-5,0
STARLINK-34447,2025-142Q,2026-07-17T21:30:40.724352,14.98334178,.00028699,70.0023,346.1535,267.1593,92.9238,0,U,64710,999,5915,.24664906E-3,.2852E-4,0
STARLINK-34312,2025-142R,2026-07-17T19:42:31.030272,14.98333114,.00031285,70.0024,346.3225,265.3432,94.7370,0,U,64711,999,5914,.16790311E-3,.1911E-4,0
STARLINK-34515,2025-142S,2026-07-17T19:12:27.385344,14.98330222,.00029393,70.0018,346.2314,271.1244,88.9578,0,U,64712,999,5895,-.44699208E-4,-.626E-5,0
STARLINK-34583,2025-142T,2026-07-17T20:24:20.958912,14.98336168,.00031862,70.0026,346.3995,266.6405,93.4389,0,U,64713,999,5895,.18484247E-3,.2114E-4,0
STARLINK-34574,2025-142U,2026-07-17T20:00:33.035616,14.98335854,.0002848,70.0022,346.3698,268.1493,91.9340,0,U,64714,999,5898,.91915061E-4,.1004E-4,0
STARLINK-34533,2025-142V,2026-07-17T19:42:18.165312,14.98340136,.0003201,70.0024,346.3288,262.2977,97.7819,0,U,64715,999,5895,.24521256E-3,.2835E-4,0
STARLINK-34548,2025-142W,2026-07-17T19:18:14.184576,14.98332240,.00031651,70.0021,346.2700,263.9719,96.1079,0,U,64716,999,5895,.97739135E-4,.1073E-4,0
STARLINK-34568,2025-142X,2026-07-17T19:54:18.062208,14.98334458,.00031277,70.0026,346.3581,265.3695,94.7107,0,U,64717,999,5898,.17608267E-3,.2009E-4,0
STARLINK-34546,2025-142Y,2026-07-17T19:06:12.731616,14.98332969,.00031611,70.0024,346.2400,269.9437,90.1360,0,U,64718,999,5914,.23403385E-3,.2701E-4,0
STARLINK-34577,2025-142Z,2026-07-17T20:00:17.275392,14.98332933,.00043331,70.0022,346.3371,251.2437,108.8252,0,U,64719,999,5898,-.17893623E-3,-.2228E-4,0
STARLINK-34572,2025-142AA,2026-07-17T19:48:14.872032,14.98376529,.0003675,70.0022,346.3420,271.8686,88.2052,0,U,64720,999,5914,-.18899542E-2,-.22599E-3,0
STARLINK-34558,2025-142AB,2026-07-17T19:48:31.170528,14.98341980,.00027211,70.0024,346.3382,269.1595,90.9252,0,U,64721,999,5895,.11735613E-3,.1308E-4,0
MTG-S1,2025-143A,2026-07-17T20:05:49.461792,1.00274335,.00033529,0.5828,345.7575,259.7759,351.1878,0,U,64723,999,372,0,-.16E-6,0
